[
    {
        "Altitude(m)": 607886.7058209971,
        "Argument of Periapsis(deg)": 0.0,
        "Eccentricity": 0.0,
        "Inclination(deg)": 60.0,
        "Latitude(deg)": 40.99848258408311,
        "Longitude(deg)": 9.972855022852995,
        "Mean Anomaly(deg)": 49.09090000000001,
        "RAAN(deg)": 80.0,
        "Satellite Name": "Test1 355",
        "Satellite Number": 355,
        "Semi-Major Axis(m)": 6980739.136638005,
        "Time(s)": 0
    },
    {
        "Altitude(m)": 607987.6203632083,
        "Argument of Periapsis(deg)": 0.00010418945913296404,
        "Eccentricity": 0.0,
        "Inclination(deg)": 60.0,
        "Latitude(deg)": 41.46357392432718,
        "Longitude(deg)": 10.477081143975715,
        "Mean Anomaly(deg)": 49.71100614546182,
        "RAAN(deg)": 79.99957995086025,
        "Satellite Name": "Test1 355",
        "Satellite Number": 355,
        "Semi-Major Axis(m)": 6980739.136638005,
        "Time(s)": 10
    }
]